STARLINK-34294          
1 64599U 25137F   26204.30643660  .00027410  00000+0  81966-3 0  9999
2 64599  53.1576  64.2341 0000935 117.3517 242.7581 15.34390709 61517
