[
  {
    "OBJECT_NAME": "STARLINK-34294",
    "OBJECT_ID": "2025-137F",
    "EPOCH": "2026-07-23T07:21:16.122240",
    "MEAN_MOTION": 15.34390709,
    "ECCENTRICITY": 0.0000935,
    "INCLINATION": 53.1576,
    "RA_OF_ASC_NODE": 64.2341,
    "ARG_OF_PERICENTER": 117.3517,
    "MEAN_ANOMALY": 242.7581,
    "EPHEMERIS_TYPE": 0,
    "CLASSIFICATION_TYPE": "U",
    "NORAD_CAT_ID": 64599,
    "ELEMENT_SET_NO": 999,
    "REV_AT_EPOCH": 6151,
    "BSTAR": 0.00081966,
    "MEAN_MOTION_DOT": 0.0002741,
    "MEAN_MOTION_DDOT": 0
  }
]
